{
  "norad_id": 38245,
  "name": "YAHSAT 1B",
  "history": [
    {
      "epoch": "2026-03-28T04:44:33.153216Z",
      "apogee_km": 35798.291033771595,
      "perigee_km": 35775.01606938712,
      "latitude_deg": -0.032274573358675174,
      "longitude_deg": 47.577228146855624,
      "height_km": 35780.300087368094,
      "semi_major_axis_km": 42164.79055157936,
      "eccentricity": 0.000276,
      "inclination_deg": 0.0894,
      "raan_deg": 88.871,
      "arg_perigee_deg": 275.505,
      "mean_anomaly_deg": 299.9651,
      "mean_motion_rev_day": 1.00271576
    },
    {
      "epoch": "2026-03-29T02:59:30.060672Z",
      "apogee_km": 35798.26755766538,
      "perigee_km": 35775.38884754644,
      "latitude_deg": 0.008354671971297484,
      "longitude_deg": 47.57738065223186,
      "height_km": 35785.84956182458,
      "semi_major_axis_km": 42164.96520260591,
      "eccentricity": 0.0002713,
      "inclination_deg": 0.0885,
      "raan_deg": 88.7821,
      "arg_perigee_deg": 277.9505,
      "mean_anomaly_deg": 272.2632,
      "mean_motion_rev_day": 1.00270953
    },
    {
      "epoch": "2026-03-29T04:42:05.221728Z",
      "apogee_km": 35798.2651761207,
      "perigee_km": 35775.03912366538,
      "latitude_deg": -0.02989246739175035,
      "longitude_deg": 47.58130104229389,
      "height_km": 35780.59055717182,
      "semi_major_axis_km": 42164.78914989305,
      "eccentricity": 0.00027542,
      "inclination_deg": 0.0886,
      "raan_deg": 88.8483,
      "arg_perigee_deg": 277.4964,
      "mean_anomaly_deg": 298.3685,
      "mean_motion_rev_day": 1.00271581
    },
    {
      "epoch": "2026-03-30T08:09:38.456352Z",
      "apogee_km": 35798.20534083488,
      "perigee_km": 35775.87382001435,
      "latitude_deg": -0.08037907244169001,
      "longitude_deg": 47.60317895356402,
      "height_km": 35775.554653463645,
      "semi_major_axis_km": 42165.17658042462,
      "eccentricity": 0.00026481,
      "inclination_deg": 0.0884,
      "raan_deg": 88.3742,
      "arg_perigee_deg": 281.2106,
      "mean_anomaly_deg": 348.1465,
      "mean_motion_rev_day": 1.00270199
    },
    {
      "epoch": "2026-03-30T16:38:27.362400Z",
      "apogee_km": 35798.06646365624,
      "perigee_km": 35775.56302890925,
      "latitude_deg": 0.02747329895328264,
      "longitude_deg": 47.63592672570644,
      "height_km": 35791.03227453703,
      "semi_major_axis_km": 42164.95174628275,
      "eccentricity": 0.00026685,
      "inclination_deg": 0.0893,
      "raan_deg": 88.3325,
      "arg_perigee_deg": 282.3325,
      "mean_anomaly_deg": 114.6178,
      "mean_motion_rev_day": 1.00271001
    },
    {
      "epoch": "2026-03-31T18:18:39.828672Z",
      "apogee_km": 35798.174480266745,
      "perigee_km": 35775.27895926691,
      "latitude_deg": 0.05968645907619539,
      "longitude_deg": 47.62274515192141,
      "height_km": 35794.881641924054,
      "semi_major_axis_km": 42164.86371976683,
      "eccentricity": 0.0002715,
      "inclination_deg": 0.0923,
      "raan_deg": 88.1181,
      "arg_perigee_deg": 284.4636,
      "mean_anomaly_deg": 138.8044,
      "mean_motion_rev_day": 1.00271315
    },
    {
      "epoch": "2026-04-01T14:50:50.894304Z",
      "apogee_km": 35798.1211061521,
      "perigee_km": 35775.07386228303,
      "latitude_deg": -0.009504456080636686,
      "longitude_deg": 47.63039047065907,
      "height_km": 35785.3315591042,
      "semi_major_axis_km": 42164.73448421757,
      "eccentricity": 0.0002733,
      "inclination_deg": 0.0943,
      "raan_deg": 87.8358,
      "arg_perigee_deg": 286.2806,
      "mean_anomaly_deg": 86.1586,
      "mean_motion_rev_day": 1.00271776
    },
    {
      "epoch": "2026-04-02T14:48:22.578336Z",
      "apogee_km": 35800.057155253424,
      "perigee_km": 35774.20647224909,
      "latitude_deg": -0.008579738037784392,
      "longitude_deg": 47.62218036315732,
      "height_km": 35786.34343957392,
      "semi_major_axis_km": 42165.26881375126,
      "eccentricity": 0.00030654,
      "inclination_deg": 0.0951,
      "raan_deg": 87.8248,
      "arg_perigee_deg": 284.0789,
      "mean_anomaly_deg": 88.7282,
      "mean_motion_rev_day": 1.0026987
    },
    {
      "epoch": "2026-04-03T19:53:59.024832Z",
      "apogee_km": 35798.572612257,
      "perigee_km": 35776.191154833614,
      "latitude_deg": 0.07522565986431722,
      "longitude_deg": 47.598726515866446,
      "height_km": 35797.46135840949,
      "semi_major_axis_km": 42165.51888354531,
      "eccentricity": 0.0002654,
      "inclination_deg": 0.0924,
      "raan_deg": 87.6195,
      "arg_perigee_deg": 290.2397,
      "mean_anomaly_deg": 160.3742,
      "mean_motion_rev_day": 1.00268978
    },
    {
      "epoch": "2026-04-04T04:27:19.860192Z",
      "apogee_km": 35798.567866104306,
      "perigee_km": 35774.7801663214,
      "latitude_deg": -0.02864347510162501,
      "longitude_deg": 47.55681862190183,
      "height_km": 35782.06049044069,
      "semi_major_axis_km": 42164.81101621285,
      "eccentricity": 0.00028208,
      "inclination_deg": 0.0927,
      "raan_deg": 87.659,
      "arg_perigee_deg": 289.1778,
      "mean_anomaly_deg": 290.0844,
      "mean_motion_rev_day": 1.00271503
    },
    {
      "epoch": "2026-04-05T12:58:16.176864Z",
      "apogee_km": 35799.781715372745,
      "perigee_km": 35774.09728067474,
      "latitude_deg": -0.03500060209649993,
      "longitude_deg": 47.61707525055049,
      "height_km": 35779.647777828184,
      "semi_major_axis_km": 42165.07649802374,
      "eccentricity": 0.00030457,
      "inclination_deg": 0.0905,
      "raan_deg": 87.0539,
      "arg_perigee_deg": 290.6931,
      "mean_anomaly_deg": 58.2465,
      "mean_motion_rev_day": 1.00270556
    },
    {
      "epoch": "2026-04-05T14:41:02.431680Z",
      "apogee_km": 35799.692311531035,
      "perigee_km": 35774.08127607868,
      "latitude_deg": -0.002024384443039312,
      "longitude_deg": 47.62182594434119,
      "height_km": 35785.00619456262,
      "semi_major_axis_km": 42165.02379380486,
      "eccentricity": 0.0003037,
      "inclination_deg": 0.0907,
      "raan_deg": 87.1557,
      "arg_perigee_deg": 290.7442,
      "mean_anomaly_deg": 83.8566,
      "mean_motion_rev_day": 1.00270744
    },
    {
      "epoch": "2026-04-06T04:22:24.405024Z",
      "apogee_km": 35798.50707507711,
      "perigee_km": 35774.9015103278,
      "latitude_deg": -0.03214717318453728,
      "longitude_deg": 47.55739790779825,
      "height_km": 35782.91068080943,
      "semi_major_axis_km": 42164.841292702455,
      "eccentricity": 0.00027992,
      "inclination_deg": 0.0899,
      "raan_deg": 87.1992,
      "arg_perigee_deg": 294.3826,
      "mean_anomaly_deg": 286.0804,
      "mean_motion_rev_day": 1.00271395
    },
    {
      "epoch": "2026-04-07T19:44:05.591616Z",
      "apogee_km": 35798.41674402749,
      "perigee_km": 35775.76558345793,
      "latitude_deg": 0.0757991346357916,
      "longitude_deg": 47.59617763276185,
      "height_km": 35796.88145487522,
      "semi_major_axis_km": 42165.22816374271,
      "eccentricity": 0.0002686,
      "inclination_deg": 0.0899,
      "raan_deg": 86.9553,
      "arg_perigee_deg": 297.7686,
      "mean_anomaly_deg": 154.9724,
      "mean_motion_rev_day": 1.00270015
    },
    {
      "epoch": "2026-04-08T00:52:08.252832Z",
      "apogee_km": 35798.40135776274,
      "perigee_km": 35775.7198546664,
      "latitude_deg": 0.029982074626564312,
      "longitude_deg": 47.55762076153236,
      "height_km": 35793.539062011885,
      "semi_major_axis_km": 42165.19760621457,
      "eccentricity": 0.00026896,
      "inclination_deg": 0.0903,
      "raan_deg": 86.9168,
      "arg_perigee_deg": 297.9184,
      "mean_anomaly_deg": 232.082,
      "mean_motion_rev_day": 1.00270124
    },
    {
      "epoch": "2026-04-09T17:56:31.382016Z",
      "apogee_km": 35796.409481408096,
      "perigee_km": 35774.543431469596,
      "latitude_deg": 0.062242890739056776,
      "longitude_deg": 47.61537864515997,
      "height_km": 35792.55590135499,
      "semi_major_axis_km": 42163.61345643885,
      "eccentricity": 0.0002593,
      "inclination_deg": 0.0869,
      "raan_deg": 86.7404,
      "arg_perigee_deg": 294.2093,
      "mean_anomaly_deg": 133.7634,
      "mean_motion_rev_day": 1.00275775
    },
    {
      "epoch": "2026-04-10T03:54:38.810880Z",
      "apogee_km": 35798.243277565314,
      "perigee_km": 35775.614973178475,
      "latitude_deg": -0.03254335496403508,
      "longitude_deg": 47.558210476185465,
      "height_km": 35785.08480594342,
      "semi_major_axis_km": 42165.0661253719,
      "eccentricity": 0.00026833,
      "inclination_deg": 0.088,
      "raan_deg": 86.9316,
      "arg_perigee_deg": 301.0131,
      "mean_anomaly_deg": 276.704,
      "mean_motion_rev_day": 1.00270593
    },
    {
      "epoch": "2026-04-11T05:31:38.585280Z",
      "apogee_km": 35798.28954572756,
      "perigee_km": 35777.048942490146,
      "latitude_deg": -0.058082910634359386,
      "longitude_deg": 47.56270250126162,
      "height_km": 35781.80837155767,
      "semi_major_axis_km": 42165.806244108855,
      "eccentricity": 0.00025187,
      "inclination_deg": 0.0871,
      "raan_deg": 86.7782,
      "arg_perigee_deg": 303.0811,
      "mean_anomaly_deg": 300.0904,
      "mean_motion_rev_day": 1.00267953
    },
    {
      "epoch": "2026-04-13T05:07:38.853696Z",
      "apogee_km": 35797.881218282084,
      "perigee_km": 35775.74883496331,
      "latitude_deg": -0.048953690489865274,
      "longitude_deg": 47.56926903457449,
      "height_km": 35781.288054053715,
      "semi_major_axis_km": 42164.952026622705,
      "eccentricity": 0.00026245,
      "inclination_deg": 0.0851,
      "raan_deg": 86.5081,
      "arg_perigee_deg": 302.6223,
      "mean_anomaly_deg": 296.787,
      "mean_motion_rev_day": 1.00271
    }
  ]
}